Land;Region;Name;Strasse;PLZ;Ort;Telefon;E-Mail;Web
Schweiz;VS;Abgottspon Sport GmbH;;3933;Staldenried;027 952 21 92;info@abgottsponsport.ch;www.abgottspon.ch
Schweiz;BE;Action Sport-Shop GmbH;Hauptstrasse 15;3800;Matten bei Interlaken;033 821 10 03;info@nature-events.ch;www.nature-events.ch
Schweiz;LU;Adventure Factory AG;Bahnhofstrasse 37;6210;Sursee;041 210 06 46;info@adfact.ch;www.adventure-factory.ch
Schweiz;AG;Albani Sport AG Oftringen;Luzernerstrasse 2;4665;Oftringen;062 797 12 70;albanisport@smile.ch;www.albani-sport.ch
Schweiz;AG;Albani Sport GmbH Lenzburg;Aavorstadt 39;5600;Lenzburg;062 891 82 72;lenzburg@albanisport.ch;www.albanisport.ch
Schweiz;VS;Alex Burgener Sport AG ;Bahnhofstrasse 72;3920;Zermatt;027 967 27 94;info@burgenersport-zermatt.ch;www.burgenersport-zermatt.ch
Schweiz;FR;Alpha Sport AG;Schwarzseestrasse 16;1712;Tafers;026 494 24 54;astoria@rhone.ch;www.astoria-saasfee.ch
Schweiz;BE;Alpin Center GmbH;Beim Bahnhof;3812;Wilderswil;033 823 55 23;mail@alpincenter.ch;www.alpincenter.ch
Schweiz;UR;Alpina Sport AG;Gotthardstrasse 101;6490;Andermatt;041 887 17 88;info@alpina-sport.ch;www.alpina-sport.ch
Schweiz;BE;Alpine-Center GmbH Kandersteg;Bahnhofstrasse;3718;Kandersteg;033 675 01 01;info@alpinecenter.ch;www.alpinecenter.ch
Schweiz;VD;Altmann Sports SA;Rue de la Madeleine 22;1800;Vevey;021 921 96 77;altmann-sport@bluewin.ch;www.altmannsports.ch
Schweiz;BE;Amstutz Sport AG;Freiestrasse 1;3604;Thun;033 336 88 77;;www.sport-amstutz.ch
Schweiz;GR;Andrist J. AG;Gotschnastrasse;7250;Klosters;081 410 20 80;andrist_sport@bluewin.ch;www.andrist-sport.ch
Schweiz;GR;Angerer Sport;Promenade 49;7270;Davos Platz;081 410 60 60;angerer-intersport@bluewin.ch;www.angerer.ch
Schweiz;AG;ARCTA Bergsport;Hauptstrasse 19;5200;Brugg;056 442 61 21;info@arcta.ch;www.arcta.ch
Schweiz;VD;AUBERT SPORT SA;Rue de la Pontaise 30;1018;Lausanne;021 646 92 52;info@aubertsport.ch;www.aubertsport.ch
Schweiz;VS;Aufdenblatten-Bayard Patricia Sport;Bahnhofstrasse 35;3920;Zermatt;027 966 49 60;info@bayardzermatt.ch;www.bayardzermatt.ch
Schweiz;BE;AZ Sports Marcel Antille &;Avenue Château de la Cour 1-4;3960;Sierre;027 455 55 55;azsport@netplus.ch;www.azsport.ch
Schweiz;LU;Bächli Bergsport ;Schappe-Center;6010;Kriens;041 329 19 00;kreins@baechli-bergsport.ch;www.baechli-bergsport.ch
Schweiz;BS;Bächli Bergsport ;Henric Petri-Strasse 25;4051;Basel;061 225 27 27;basel@baechli-bergsport.ch;www.baechli-bergsport.ch
Schweiz;BE;Bächli Bergsport ;Waldhöheweg 1;3013;Bern;031 330 80 80;bern@baeschli-bergsport.ch;www.baechli-bergsport.ch
Schweiz;SG;Bächli Bergsport ;Bionstrasse 1;9015;St. Gallen;071 314 00 30;stgallen@beachli-bergsport.ch;www.baechli-bergsport.ch
Schweiz;ZH;Bächli Bergsport ;Binzmühlestrasse 80;8050;Zürich Oerlikon;044 317 20 02;zuerich@baechli-bergsport.ch;www.baechli-bergsport.ch
Schweiz;GR;Balzer Sport AG;Rüti;7076;Parpan;081 382 21 41;info@balzersportparpan.ch;www.balzersportparpan.ch
Schweiz;SG;Bannwart Ski + Sport;Obere Harfenbergstrasse 11;9533;Kirchberg;071 931 18 46;bannwart.sport@bluewin.ch;www.bannwartsport.ch
Schweiz;GR;Banzer Sport u. Mode;Neudorfstrasse 36;7430;Thusis;081 651 20 38;banzer.sport@spin.ch;www.banzer-sport.ch/
Schweiz;GR;Bardill Sport AG;Landstrasse 185;7250;Klosters;081 422 10 40;info@bardill-sport.ch;www.bardill-sport.ch
Schweiz;GR;Bardill Sport Shop AG;Brämabüelstrasse 13;7270;Davos - Platz;081 413 23 23;davos@bardill-sport.ch;www.bardill-sport.ch
Schweiz;LU;Baumli Sport GmbH;Sempacherstrasse 12;6280;Hochdorf;041 910 10 63;info@baumli-sport.ch;www.baumli-sport.ch
Schweiz;SG;Beat Sport AG;Churerstrasse 175;9470;Buchs;081 756 70 50;beat-sport@bluewin.ch;beat-sport.ch
Schweiz;TI;Belotti Moda-Sport SA;Via Cittadella 22;6600;Locarno;091 751 66 02;info@belottisport.ch;www.belotti.ch
Schweiz;VS;Berg - Schneesportcenter Oberwallis;Bielstrasse 8;3995;Ernen;027 971 25 25;heinz.seiler@rhone.ch;www.schneesportcenter.ch
Schweiz;GR;Bergbahnen Disentis AG;Postfach;7180;Disentis;081 920 30 40;;www.disentis3000.ch
Schweiz;ZG;BERGE PUR GmbH ;Rathausstrasse 9;6340;Baar;041 761 20 66;info@bergepur.ch;www.bergepur.ch
Schweiz;BE;Berger Schuhe & Sport;Haldenweg 1;3510;Konolfingen;031 791 06 53;info@berger-schuhe.ch;www.berger-schuhe.ch
Schweiz;SO;Bergsport Bordogna GmbH;Dornacherplatz 15;4500;Solothurn;032 621 15 30;bergsport@bordogna.ch;www.bordogna.ch
Schweiz;OW;Berlinger Sport-Treff;Lindenstrasse 2;6060;Sarnen;041 660 04 49;;www.sporttreff.ch
Schweiz;BE;Bernet Sport AG;Hauptstrasse;3818;Grindelwald;033 853 13 09;bernet-sport@bluewin.ch;www.bernet-sport.ch
Schweiz;GR;Bieler Sport;Versamerstrasse 7;7402;Bonaduz;081 650 20 50;bielersport@netcomag.ch;www.bielersport.ch
Schweiz;SZ;Bike & Climb Up;Riedmattli 1;6423;Seewen;041/813 14 14;info@bikeandclimbup.ch;www.bikeandclimbup.ch
Schweiz;VS;Bikes Evasion Sports;Route du Village;1908;Riddes;027 306 79 79;bikevasion@sunrise.ch;www.bike-evasion-riddes.ch
Schweiz;GL;bikestop+station;Obere  Allmeind 2a;8755;Ennenda;055 640 27 75;shop@stations.ch;stations.ch
Schweiz;GR;Blaesi Sport und Mode AG;Via Principala 62;7078;Lenzerheide;081 384 11 21;info@blaesisport.ch;www.blaesisport.ch/
Schweiz;BE;Blue Wave Sportshop;Dorfstrasse 29;3550;Langnau im Emmental;034 402 60 24;;www.bluewaveshop.ch
Schweiz;SG;Bossart Sport Wil;Toggenburgstrasse 46;9500;Wil;071 911 22 73;;www.bossart-sport.ch
Schweiz;VS;Bournissen Sports ;;1986;Arolla;027 283 14 54;basile.bournissen@span.ch;bournissen-sports.skiset.com
Schweiz;BE;Brand Sport + Mode AG;Palacestrasse;3780;Gstaad;033 744 17 75;brand.sport@bluewin.ch;www.brandsport.ch
Schweiz;VS;Break Point ;Napoleonstrasse 10;3930;Visp;027 946 64 60;break-point@rhone.ch;www.break-point.ch
Schweiz;VS;Briand Sport AG;Haus City;3954;Leukerbad;027 470 14 72;mail@briandsport.ch;www.briandsport.ch
Schweiz;VS;Bugaboo Sport ;Rue du Pont Suspendu 4;1700;Fribourg;026 322 61 39;info@bugaboo.ch;www.bugaboo.ch
Schweiz;GR;Bünda Sport;Museumstrasse 2;7260;Davos Dorf;081 416 72 22;buendasport@bluewin.ch;www.buendasport.ch
Schweiz;VS;Bürcher Sport ;Alteschpromenade 112;3987;Riederalp;027 928 62 50;buerchersport@rhone.ch;www.rhone.ch/buercher
Schweiz;ZH;C & M Sport;Dammstrasse 21;8708;Männedorf;041 920 55 50;;www.cmsport.ch
Schweiz;VS;CALAME SPORTS;Rue Neuve 3;2302;La Chaux-de-Fonds;032 968 24 40;calame.sports@bluewin.ch;www.calamesports.ch
Schweiz;TI;Camponovo Sport ;Via Cantonale;6802;Rivera;091 946 11 74;info@camponovosport.ch;www.camponovosport.ch
Schweiz;GR;Caprez Sport;Hauptstrasse 14a;7240;Küblis;081 332 36 36;caprez@caprez-sport.ch;www.caprez-sport.ch
Schweiz;GR;Carmenna Sport AG;Äussere Poststrasse;7050;Arosa;081 377 12 05;;www.carmennasport.ch
Schweiz;FR;Castella-Sports SA;Grand-Rue 17;1630;Bulle;026 912 76 47;info@castella-sport.ch;www.castella-sport.ch
Schweiz;BE;Central Sport Viktor Gertsch AG;Postfach;3823;Wengen;033 855 23 23;centralsport@wengen.ch;www.centralsport.ch
Schweiz;VS;CESAR SPORT RENT;;3906;Saas Fee;027 957 14 16;saas-fee@cesarsport.ch;www.cesarsport.ch
Schweiz;VS;Chabloz Sports;Imm. Barmaz B;3961;St.-Luc;027 475 16 18;chabloz-sport@swissonline.ch;www.chabloz-sports.ch
Schweiz;VS;Chevrier Sports;;1984;Les Haudères;027 283 22 82;;www.chevriersports.ch
Schweiz;OW;Cristallina Sport Rental ;Dorfstrasse 39;6390;Engelberg;041 637 11 78;info@cristallina-sport.ch;www.cristallina-sport.ch/
Schweiz;VD;Dätwyler Sports;Place de la Gare;1884;Villars-sur-Ollon;024 495 23 85;mail@daetwyler-sports-villars.ch;www.daetwyler-sports-villars.ch
Schweiz;NE;Défi Montagne;Grand-Rue 2;2034;Peseux;032 731 14 39;lausanne@passemontagne.ch;www.defi-montagne.ch
Schweiz;FR;Divisports SA ;Route du Verdel 22;1630;Bulle;026 912 10 91;;www.divisport.ch
Schweiz;AG;Döbeli Sport AG ;Unterdorf 15;5703;Seon ;062 775 11 53;;www.doebeli-sport.ch
Schweiz;GR;Dörfji-Sport;Landstrasse 15;7252;Klosters Dorf;081 422 44 50;doerfjisport@bluewin.ch;www.doerfjisport.ch
Schweiz;AI;Dörig Sport;Dorf 13;9057;Weissbad;071 799 11 12;;www.doerigsport.ch
Schweiz;VS;Dorsaz-Sport;Talstation Klein Matterhorn;3920;Zermatt;027 966 38 10;dorsaz-sport@swissonline.ch;www.dorsaz-sport.ch
Schweiz;VS;DO-Sports;;3961;Grimentz;027 475 17 88;do-sports@espaceinfo.ch;www.do-sports.ch
Schweiz;FR;Dupasquier Sport;Au Briez;1628;Vuadens;026 912 74 12;;www.dupasquier-sports.ch
Schweiz;BE;Edelweiss Sport AG;Les Arcades;3780;Gstaad;033 744 50 05;info@edelweisssport.ch;www.edelweisssport.ch
Schweiz;ZH;eglisport ag;Unterer Graben 11;8400;Winterthur;052 203 37 07;iren.rauber@eglisport.ch;www.egli-sport.com
Schweiz;ZG;Ehrler Sport;Baarerstrasse 23;6300;Zug;041 711 92 48;rbuehler@ehrler-sport.ch;www.ehrler-sport.ch
Schweiz;LU;Eiselin Sport  AG;Obergrundstrasse 70;6000;Luzern 4;041 248 01 01;eiselin@eiselin-sport.ch;www.eiselin-sport.ch
Schweiz;BE;Eiselin Sport  AG;Monbijoustrasse 20;3011;Bern;031 381 76 76;eiselin@eiselin-sport.ch;www.eiselin-sport.ch
Schweiz;BS;Eiselin Sport  AG;Güterstrasse 97;4053;Basel;061 331 45 39;eiselin@eiselin-sport.ch;www.eiselin-sport.ch
Schweiz;ZH;Eiselin Sport  AG;Stampfenbachstrasse 138;8006;Zürich;044 362 48 28;eiselin@eiselin-sport.ch;www.eiselin-sport.ch
Schweiz;VS;El Cap SA / Anorak;Bahnhofstrasse 20;3920;Zermatt;027 968 17 77;elcap@axiom.ch;www.anorak-zermatt.ch
Schweiz;GR;Ettinger Sport AG;Promenade 153;7260;Davos Dorf;081 410 12 12;ettingersport@bluewin.ch;www.ettinger.ch
Schweiz;VS;Evasion Sports - Loisirs ;Place de Savoleyres;1936;Verbier;027 771 20 47;evasion@verbier.ch;www.loisirs.ch
Schweiz;GR;Exodus;Obere Gasse 48;7000;Chur;081 252 47 94;shop@exodus.ch;www.exodus.ch
Schweiz;BE;Fahner Sport GmbH;Twing;6084;Hasliberg Wasserwendi;033 971 12  29;fahner-sport@bluemail.ch;www.fahner-sport.ch
Schweiz;VS;Fleutry Sports ;;1923;Les Marécottes;027 761 15 91;fleutry-olivier@hotmail.com;www.fleutry-sport.ch
Schweiz;VS;Follomi Sports;Rue du Scex 45;1950;Sion;027 323 34 71;;www.follomi.ch
Schweiz;VS;Fragniere Sports;Résidence les Diablerets;1993;Veysonnaz;027 207 12 77;contact@fragnieresports.ch;www.fragnieresports.ch
Schweiz;VS;François-Sports;Grand-Rue 62;1110;Morges;021 801 33 33;fsports@worldcom.ch;www.francois-sports.ch
Schweiz;BE;Frautschi Sports AG ;Waldmattenstrasse;3778;Schönried;033 744 16 49;info@frautschi.ch;www.frautschi.ch
Schweiz;GL;Fridolin Sport;Bankstrasse 46;8750;Glarus;055 640 31 47;info@fridolin-sport.ch;www.fridolin-sport.ch
Schweiz;SG;Frigg Sport ;Alte Schlossi;8718;Schänis;055 283 43 82;info@bergschule.ch;www.bergschule.ch
Schweiz;GR;Fullmoons GmbH;Promenade 110;7270;Davos Platz;081 420 14 77;shop@fullmoons.ch;www.fullmoons.ch
Schweiz;AR;G1 SPORT GMBH;Dorfplatz 15;9056;Gais;071 790 04 01;info@g1-sport.ch;www.g1-sport.ch
Schweiz;VS;Gaby Sport;imm. Eh l'Idée;1997;Haute-Nendaz;027 288 18 43;gabysports@bluewin.ch;www.gabysports.ch
Schweiz;BE;Gafner Bergsport;Untere Hauptgasse 18;3601;Thun;033 222 43 56;stockhorn.syle@bluewin.ch;www.gafner-bergsport.ch
Schweiz;VS;Genolet-Sports SA;Le Cervin;1988;Thyon-les-Collons;027 281 18 46;info@genoletsports.ch;www.genoletsports.ch
Schweiz;GR;Gisler Sport;Tschuggen Grand Hotel;7050;Arosa;081 378 99 44;;www.gislersport.ch
Schweiz;VS;Glacier-Sport;;3906;Saas Fee;027 957 18 65;glacier-sport@bluewin.ch;www.glaciersport.ch
Schweiz;VS;Glacier-Sport;Bahnhofstrasse;3920;Zermatt;027 968 13 00;glacier.intersport@bluewin.ch;www.glacier-intersport.ch
Schweiz;VS;Glacier-Sport;Bahnhofstrasse 15;3900;Brig;027 923 46 46;schaller@bluewin.ch;www.glaciersport.ch
Schweiz;VS;Glacier-Sport;;3925;Grächen;027 956 12 52;glacier.sport@bluewin.ch;www.glaciersport.ch
Schweiz;BE;Glatthard Sport AG;Bahnhofstrasse 3;3860;Meiringen;033 972 52 72;mglatthard@access.ch;www.glatthardsport.ch
Schweiz;VS;Gliss-rando;;1923;Les Marecottes;027 761 12 06;;www.glissrando.ch
Schweiz;SG;Gonzen Sport & pro-vita-center;Tiefriet;7320;Sargans;081 723 78 38;info@gonzensport.ch;www.gonzensport.ch
Schweiz;GR;Gotschna Sport AG;Alte Bahnhofstrasse 5;7250;Klosters;081 422 39 80;sportshop@gotschnasport.ch;www.gotschnasport.ch
Schweiz;BE;Graf Sport AG;Postfach 154;3818;Grindelwald;079 656 23 60;info@graf-sportrent.ch;www.graf-sportrent.ch
Schweiz;GR;Gruber Sport & Co.;;7504;Pontresina;081 842 62 36;andy@gruber-sport.ch;www.gruber-sport.ch
Schweiz;ZH;Gubler-Sport;Bahnhofplatz 9;8910;Affoltern am Albis;01 761 78 21;gublersport@freesurf.ch;www.gubler-sport.ch
Schweiz;SZ;Gwerder Sport;Poststrasse 1;6436;Muotathal;041 830 18 88;;www.gwerder-sport.ch
Schweiz;SH;Hallauer Sport;Zentralstrasse 43;8212;Neuhausen;052 672 75 36;hallauersport@hotmail.com;www.hallauersport.ch
Schweiz;GR;Hangl Sport u. Mode;Dorfstrasse 9;7563;Samnaun Dorf;081 861 93 36;sport+mode@hangl.ch;www.hangl.com
Schweiz;NE;Happy Sports;Case postale 26;1934;Le Châble;027 776 15 44;happysports@netplu;www.happysports.ch
Schweiz;VS;Hardcore Sports ;Galerie Alpina;1936;Verbier;027 771 78 20;hardocre@axiom.ch;www.hardcore-verbier.ch
Schweiz;BE;Haueter Sport & Fashion;Bahnhofplatz 2;3110;Münsingen;031 722 44 44;haueter-sport@swissonline.ch;www.hauetersport.ch
Schweiz;GE;Haute Pression Sports;Place du Village;1660;Château d'Oex;026 924 56 53;haute_pression@bluewin.ch;/www.hautepression.ch
Schweiz;VD;Hefti Sports ;pl. du Marché les Oiselets;1854;Leysin;024 494 16 77;info@heftisports.ch;www.heftisports.ch
Schweiz;BE;Heiniger Sport AG;Hirschenmarkt ;3250;Lyss;032 387 70 50;office@heinigersport.ch;www.heinigersport.ch
Schweiz;GR;Heini's Skischirurgie GmbH;Bahnhofstrasse;7323;Wangs;081 723 05 92;heini@skichirurgie.ch;www.skichirurgie.ch
Schweiz;ZH;Helmi Sport AG ;Albisstrasse 20;8134;Adliswil;01 710 20 70;info@helmi-sport.ch;www.helmi-sport.ch
Schweiz;UR;Herger Sport ;Lehnplatz 11;6460;Altdorf ;041 870 79 50;info@hergersport.ch;www.hergersport.ch
Schweiz;VS;Hisport ;Haus Rotondo;3999;Oberwald;027 973 11 03;info@hisport.ch;www.hisport.ch
Schweiz;VS;Holiday-Sport SA;Résidence Opaline;1874;Champéry;024 479 15 26;info@holidaysport.ch;www.holidaysport.ch
Schweiz;AG;Huwiler-Sport AG;Aettenbergstrasse 6;5630;Muri;056 664 33 51;info@huwiler-sport.ch;www.huwiler-sport.ch
Schweiz;LU;Huwyler AG ;Fläcke 29;6215;Beromünster;041 930 31 39;info@huwylerag.ch;www.huwylerag.ch
Schweiz;UR;Imholz-Sport AG ;Klausenstrasse 142;6463;Bürglen;041 874 00 90;jimholz@imholzsport.ch;www.imholzsport.ch
Schweiz;UR;Indergand Sport;Gotthardstrasse 106;6472;Erstfeld;041 880 25 85;;www.indergandsport.ch
Schweiz;BE;Ingold Sport + Mode AG;Kirchgasse 6;3360;Herzogenbuchsee;062 961 12 45;inglodsport@bluewin.ch;www.ingold-sport.ch
Schweiz;GR;Intersport Curschellas ;Via Alpsu 67;7188;Sedrun;081 949 11 73;lcurschellas@bluewin.ch;www.curschellas.ch
Schweiz;LU;Intersport Felder AG;Rothornstrasse 14;6174;Sörenberg;041 488 12 49;info@intersportfelder.ch;www.intersportfelder.ch
Schweiz;FR;Intersport Zürcher AG;Schwandistrasse 23;3714;Frutigen;033 671 26 29;intersport-zuercher@bluewin.ch;www.sportbudget.ch
Schweiz;VD;Jack Sports ;;1524;Marnand;026 668 20 05;;www.jacksports.ch
Schweiz;VS;Julen Sport ;Hofmattstrasse;3920;Zermatt;027 967 43 40;juliensport@rhone.ch;www.julensport.ch
Schweiz;UR;Just for Freaks ;Gotthardstrasse 84;6460;Altdorf;041 871 15 38;info@justforfreaks.ch;www.justforfreaks.ch
Schweiz;ZG;Kaktus Outdoor AG ;Baarerstrasse 49;6300;Zug;041 710 22 61;;www.kaktus-outdoor.ch
Schweiz;BL;Kathriner Sport ;Gelterkinderstrasse 30;4450;Sissach;061 971 39 41;info@kathrinersport.ch;www.kathrinersport.ch
Schweiz;BE;Kaufmann Sport ;;3818;Grindelwald;033 853 13 77;info@kaufmann-sport.ch.ch;www.kaufmann-sport.ch
Schweiz;SZ;KS-Sport AG;Bahnhofstrasse 6;8854;Siebnen;055 440 21 20;ks-sport@bluewin.ch;www.ks-sports.ch
Schweiz;SG;Kuster Sport AG;St. Gallerstrasse 72;8716;Schmerikon;055 286 13 73;info@kustersport.ch;www.kustersport.ch
Schweiz;VD;La Boit'àskis ;Rue de Médran 25;1936;Verbier;027 771 34 87;boitaskis@verbier.ch;www.boitaskis.com
Schweiz;VS;Là-Haut;rue de l'industrie 54;1950;Sion;027 321 30 31;info@la-haut.ch;www.la-haut.ch
Schweiz;AR;Lutz Sport;St. Gallerstrasse 53;9101;Herisau;071 352 36 77;info@lutzsport.ch;www.lutzsport.ch
Schweiz;BE;Makalu Sport GmbH;Rawilstrasse 6;3775;Lenk;033 733 18 42;info@makalu-sport.ch;makalu-sport.ch
Schweiz;VS;Mariéthoz Sports SA;Casa postale 252;1997;Haute-Nendaz;027 288 23 53;info@mariéthoz.com;www.mariethoz.com
Schweiz;SZ;Marty Sport;Sonnmattstrasse 2;8842;Unteriberg;055 414 13 10;marty.sport@bluewin.ch;www.marty-sport.ch
Schweiz;VS;Matterhorn Sport;Bahnhofstrasse 78;3920;Zermatt;027 967 29 56;info@matterhornsport.ch;www.matterhornsport.ch
Schweiz;BE;Matti Papeterie Spiel & Sport AG;Bahnhofstrasse 4;3770;Zweisimmen;033 722 02 02;mattisport@bluewin.ch;www.intersport-matti.ch
Schweiz;GR;Meini Sport u. Mode;Talstation Crap Sogn Gion;7032;Laax;081 936 62 00;gruber@meini.ch;www.meini.ch
Schweiz;SZ;Meli Sport;Herrengasse 14;6430;Schwyz;041 811 60 10;info@melisport.ch;www.melisport.ch
Schweiz;GL;Menzi Sport;Menziguet;8757;Filzbach;055 614 11 15;;www.menzi-sport.ch
Schweiz;GR;Menzli Sport AG Ilanz;Center Mundaun;7130;Ilanz;081 920 08 80;menzlisport@swissonline.ch;www.menzlisport.ch
Schweiz;SG;Metzger Sport AG;Schomattenstrasse 8;9630;Wattwil;071 988 71 61;spome@sport-metzger.ch;www.sport-metzger.ch
Schweiz;UR;Meyer's Sporthaus AG;Gotthardstrasse 93;6490;Andermatt;041 887 12 32;meyer.sport@bluewin.ch;www.meyers-sporthaus.ch
Schweiz;FR;Mondo Sport;Bernstrasse 32;3280;Murten;026 670 32 72;info@mondosport.ch;www.mondosport.ch
Schweiz;VS;Montagne-Show ;Place de curala;1934;Le Châble;027 776 10 10;mayeyvan@hotmail.com;www.montagneshow.ch
Schweiz;VS;Moret Sports SA;Place de Plaisance;1920;Martigny;027 722 59 28;info@moretsports.ch;www.moretsports.ch
Schweiz;VS;Morgins-Sports ;Résidence du Village;1875;Morgins;024 477 11 79;info@morgins-sport.com;www.morgins-sports.com
Schweiz;VS;Mountain Air SA;Rue de Médran;1936;Verbier;027 771 62 31;mountainair@dplanet.com;www.mountainairverbier.com
Schweiz;GR;Mountain Fantasy AG;Flora-Center;7018;Flims Waldhaus;081 936 70 77;bergsport@mountain-fantasy.ch;www.mountain-fantasy.ch
Schweiz;GR;Mountain Shop;Via Maistra;7504;Pontresina;081 842 64 37;info@mountainshop.ch;www.mountainshop.ch
Schweiz;VS;Neige Aventure SA;Immeuble Les Chévaries;1997;Haute-Nendaz;027 288 31 31;info@cactus.ch;www.onthemountain.ch
Schweiz;GR;Neue Albeina Sport AG;Landstrasse 26;7252;Klosters Dorf;081 422 39 59;info@albeina-sport.ch;www.albeina-sport.ch
Schweiz;GR;New Rada ;Plazzet 16;7503;Samedan;;;www.newrada.ch
Schweiz;GR;Norbert Joos Bergsport AG;Comercialstrasse 24;7000;Chur;081 253 74 14;joos@spin.ch;www.bergsport.ch
Schweiz;ZG;Ochsner Sport;Baarerstrasse 16;6300;Zug;041 710 74 50;info@ochsner-sport.ch;www.ochsner-sport.ch
Schweiz;VS;Ochsner Sport;Rue de la Dixance 6 ;1950;Sion;027 323 84 84;info@ochsner-sport.ch;www.ochsner-sport.ch
Schweiz;VD;Ochsner Sport;En Pré-Neuf ZI;1844;Villeneuve;021 960 48 40;info@ochsner-sport.ch;www.ochsner-sport.ch
Schweiz;VS;Ochsner Sport;rte Cantonale 11 ;1964;Conthey;027 346 97 00;info@ochsner-sport.ch;www.ochsner-sport.ch
Schweiz;GE;Ochsner Sport;Rue du marché 11;1204;Genève;022 310 89 68;info@ochsner-sport.ch;www.ochsner-sport.ch
Schweiz;FR;Ochsner Sport;rue du Château-d'en-Bas 6;1630;Bulle;026 912 01 95;info@ochsner-sport.ch;www.ochsner-sport.ch
Schweiz;VD;Ochsner Sport;av. du Gén. Guisan 15;1800;Vevey;021 923 87 17;info@ochsner-sport.ch;www.ochsner-sport.ch
Schweiz;ZH;Ochsner Sport;Löwenstrasse 31;8001;Zürich;044 212 80 40;info@ochsner-sport.ch;www.ochsner-sport.ch
Schweiz;SZ;Odermatt Sport ;Ringstrasse;6433;Stoos;041 811 16 01;info@odermatt-sport.ch;www.odermatt-sport.ch
Schweiz;BE;Oester Sport AG;Dorfstrasse 25;3715;Adelboden;033 673 16 25;info@oestersport.ch;www.oestersport.ch
Schweiz;BE;Overlap AG ;Gstaadstrasse ;3792;Saanen;033 748 66 00;info@overlap.ch;www.overlap.ch
Schweiz;FR;OXYGENE Montagne;Route de Ferpicloz 8;1731;Ependes;026 413 37 70;info@oxygene-montagne.ch;www.oxygene-montagne.ch
Schweiz;GR;PaarSenn Sport und Mode;Promenade 159;7260;Davos Dorf;081 410 10 10;info@paarsennsport.ch;www.paarsennsport.ch
Schweiz;SG;PAIS-SPORT AG;Favrestrasse 7;9016;St. Gallen;071 288 20 25;pais-sport@bluewin.ch;www.pais-sport.ch
Schweiz;GR;Peer Sport ;Talstrasse 62;7563;Samnaun Ravaisch;081 868 52 60; peer.ravaischa@datacomm.ch;www.peersport.com
Schweiz;VS;Perraudin Sports ;;1918;La Tzoumaz;027 306 42 60;perraudinsport@bluewin.ch;www.perraudinsports.ch
Schweiz;AG;Peterhans Sport AG;Weite Gasse 33-35;5401;Baden;056 222 05 15;info@peterhanssport.ch;www.peterhans-sport.ch
Schweiz;SG;Pizol Sport AG;Bachstrasse 12;8887;Mels;081 723 64 80;;www.pizolsport.ch
Schweiz;BE;Pollux Sport AG;Rudenz 32;3860;Meiringen;033 971 43 18;pollux@castor.ch;www.castor.ch
Schweiz;NE;Pro Neige;Bas du Télésiège;2115;Buttes;032 860 11 60;aimonetti@bluewin.ch;www.proneige.ch
Schweiz;ZH;Radical Sports;Mythenquai 353;8038;Zürich;044 483 00 37;office@radical-sports.com;www.radical-sports.com
Schweiz;VD;Raoul Sports;Rue Neuve 4;1260;Nyon;022 361 38 35;raoulsport@bluewin.ch;www.raoulsport.ch
Schweiz;VD;Richard Sports Sàrl;Rte des Ecovets;1885;Chesières;024 495 25 44;jrichard@dplanet.ch;www.richard-sports.ch
Schweiz;VS;Rip Zone;Furkastrasse 27;3900;Brig;079 213 96 72;;www.rip-zone.ch
Schweiz;LU;Rockstore GmbH;Moosstrasse 8;6003;Luzern;041 242 10 20;contact@rockstore.ch;www.rockstore.ch
Schweiz;VS;Rossier Sports;Immeuble Evouettaz;1969;St. Martin;027 281 19 57;rossier-sport@bluewin.ch;www.rossier-sports.ch
Schweiz;SG;Roth Bergsport u. Trekking GmbH;Linsenbühlstrasse 77;9000;St. Gallen;071 222 40 41;;www.rothbergsport.ch
Schweiz;VS;Roux Philippe Sports;Place Centrale;1936;Verbier;027 771 47 12;ph.roux@verbier.ch;www.philippe-roux.ch
Schweiz;ZH;Ruedi Bergsport;Birmensdorferstrasse 55;8004;Zürich;01 241 58 52;info@ruedi-bergsport.ch;www.ruedi-bergsport.ch
Schweiz;TI;Sarci Sport SA;;6718;Olivone;091 872 14 50;info@sarcisport.ch;www.sarcisport.ch
Schweiz;VD;SB Sport Service SA ;Grand Rue 30;1196;Gland;022 364 31 55;sb@sbsport.ch;www.sbsport.ch
Schweiz;VD;Schaefer-Sport SA;Descente St-François 16-18;1003;Lausanne;021 320 22 02;info@schaefer-sports.ch;www.schaefer-sports.ch
Schweiz;LU;Schär Sport ;Bahnhofstrasse 6;6210;Sursee;041 921 26 20;;www.schaersport.ch
Schweiz;BL;Schmutz Sport AG;Hauptstrasse 72;4436;Oberdorf;061 965 93 00;info@schmutzsport.ch;www.schmutzsport.ch
Schweiz;NW;Schön Sport ;Hauptstrasse 34;6386;Wolfenschiessen;041 628 10 27;schoen-sport@susoft.net;www.schoen-sport.net
Schweiz;AG;Schreiber-Sport;Niedermatt 15;4317;Wegenstetten;061 871 02 11;info@schreiber-sport.ch;wwww.schreiber-sport.ch
Schweiz;BE;Schütz Sport und Mode;Kleindorf;3762;Erlenbach;033 681 11 57;info@schuetzsport.ch;www.schuetzsport.ch
Schweiz;TG;Schüür Sport ;Schulstrasse 5;8576;Mauren;071 630 00 10; info@sport-schueuer.ch;www.sport-schueuer.ch
Schweiz;FR;SIDE CUT Sports AG;Hauptstr. 522;1716;Schwarzsee;079/ 237 89 89;info@sidecut.ch;www.sidecut.ch
Schweiz;VD;Silver Sport;Route Cantonale;1659;Rougemont;026 925 80 50;silversport@planet.ch;silversport.ch
Schweiz;NW;Ski & Sport Achermann AG;Engelbergstrasse 37 a;6370;Stans;041 610 12 18;ski-achermann@bluewin.ch;www.achermannsport.ch
Schweiz;GR;Ski + SB Center Niedermair ;Fatschel;7028;St. Peter;081 374 11 46;niedsind@hotmail.com;www.snowwave.ch
Schweiz;VS;Ski Rinaldo;;3962;Montana-Vermala;027 481 89 17;info@ski-rinaldo.ch;www.ski-rinaldo.ch
Schweiz;BE;Ski- und Velo-Center Straub AG;Freiburgstrasse 571;3172;Niederwangen;031 981 34 11;;www.ski-velo-center.ch
Schweiz;BE;Ski- und Velo-Center Straub AG;Papiermühlestrasse 159;3063;Ittigen;031 921 22 21;info@ski-velo-center.ch;www.ski-velo-center.ch
Schweiz;BE;Ski- und Velo-Center Straub AG;Hirschengraben 7;3011;Bern;031 312 00 31;info@ski-velo-center.ch;www.ski-velo-center.ch
Schweiz;TG;Ski-Gubler AG;Unterdorfstrasse 3;8507;Hörhausen;052 762 73 73;info@skigubler.ch;www.skigubler.ch
Schweiz;GR;Skiservice Corvatsch ;Chesa Crap Alv;7513;Silvaplana-Surlej;081 828 82 75;skiservice@bluewin.ch;www.skiservice-corvatsch.com
Schweiz;VS;Ski-Service SA;La Vallée Blanche;1936;Verbier;027 771 67 70;skiservice_verbier@compuserve.com;www.skiservice.com
Schweiz;GE;SNC Passe Montagne;Boulevard Carl-Vogt 32;1205;Genève;022 321 00 48;geneve@passemontagne.ch;www.passemontagne.ch
Schweiz;VS;SNC Passe Montagne;Rue du Crochetan 2;1870;Monthey;024 471 11 14;guy.baudat@span.ch;www.passemontagne.ch
Schweiz;VD;SNC Passe Montagne;Av. de France 34;1004;Lausanne;021 625 25 55;guy.baudat@span.ch;www.passemontagne.ch
Schweiz;GR;Splügen Sport ;Hauptstrasse;7435;Splügen;081 664 19 19;;www.spluegensport.ch
Schweiz;VS;Sport & Mode;Dorfstrasse 190;3925;Grächen;027 956 15 29;zenklusensport@hotmail.com;www.zenklusensport.ch
Schweiz;AI;sport + mode baumann ag;Weissbadstrasse 4;9050;Appenzell;071 787 35 45;sport-baumann@bluewin.ch;www.sport-baumann.ch
Schweiz;VD;Sport 137 ;Route de Suisse 135;1290;Versoix;022 755 55 50;info@sport137.ch;www.sport137.ch
Schweiz;UR;sport 4 you ;Gotthardstrasse 55;6490;Andermatt;041 888 00 71;info@sport4you-andermatt.ch;www.sport4you-andermatt.ch
Schweiz;VS;Sport 4000 ;;3961;St-Luc;027 475 13 48;;www.sport4000.ch
Schweiz;VS;Sport Evasion Sàrl;;1983;Evolène;027 283 22 11;contact@sport-evasion.ch;www.sport-evasion.ch
Schweiz;ZH;Sport Shop Time Out Uster AG;Pfäffikerstrasse 30;8610;Uster;01 942 06 16;mail@sportshop-timeout.ch;www.sportshop-timeout.ch/
Schweiz;SG;Sport Tannenheim AG;Postfach;8897;Flumserberg;081 733 17 25;info@sport-tannenheim.ch;www.sport-tannenheim.ch
Schweiz;SG;Sport Treff AG ;Stitz;9657;Unterwasser;071 999 12 05;info@sport-treff.ch;www.sport-treff.ch
Schweiz;VS;Sporthaus Lauchernalp ;;3918;Wiler;027 939 15 84;fredy@sporthaus-lauchern.ch;www.sporthaus-lauchern.ch
Schweiz;ZH;SPORTIS AG;Dorfstrasse 9;8805;Richterswil;01 784 60 55;sportis@sportis.ch;www.sportis.ch
Schweiz;LU;SPORTmonnaie AG ;Gibraltarstrasse 24;6003;Luzern;041 240 54 34;sportmonnaie@freesurf.ch;www.sportmonnaie.ch
Schweiz;ZH;Sportplausch Wider AG;Widenholzstrasse 6;8304;Wallisellen;01 830 52 44;sportplauschwider@bluewin.ch;www.sportplauschwider.ch
Schweiz;VD;Sport's House-Villars;rte des Hôtels;1884;Villars-sur-Ollon;024 495 22 91;magasin@sportshouse.ch;www.sportshouse.ch
Schweiz;ZG;Sport-Service Bannwart AG ;Reiffergässli 4;6300;Zug;041 711 22 40;sportservice@bluewin.ch;www.sport-service.ch
Schweiz;BL;Sportshop Karrer AG;Ziegeleistrasse 48;4242;Laufen;061 781 23 21;karrer-sportshop@bluemail.ch;www.sportshopkarrer.ch
Schweiz;ZH;Sport-Trend-Shop AG ;Heuweidlistrasse;8340;Hinwil;044 938 38 40;info@sts-online.ch;www.sts-online.ch
Schweiz;GR;Sprecher Sport;;7050;Innerarosa;081 377 12 07;;www.intersport-sprecher.ch
Schweiz;BE;Stäger-Sport ;Im Gruebi;3825;Mürren;033 855 23 55;staegersport@bluewin.ch;www.staegersport.ch
Schweiz;BE;Stockhorn Sport;Frutigenstrasse 8;3600;Thun;033 223 23 09;info@stockhorn-sport.ch;www.stockhorn-sport.ch
Schweiz;ZH;Stöckli Swiss Sports AG;Florhofstrasse 13;8820;Wädenswil;044 780 28 08;info@stoecklisport.ch;www.stoecklisport.ch
Schweiz;ZH;Stöckli Swiss Sports AG;Balz-Zimmermann-Strasse 7;8302;Kloten;044 945 14 18;info@stoecklisport.ch;www.stoecklisport.ch
Schweiz;OW;Stöckli Swiss Sports AG;Gerschnistrasse;6390;Engelberg;041 637 04 44;info@stoecklisport.ch;www.stoecklisport.ch
Schweiz;LU;Stöckli Swiss Sports AG;Kommetsrüti 7;6110;Wolhusen;041 492 62 62;info@stoecklisport.ch;www.stoecklisport.ch
Schweiz;SO;Stöckli Swiss Sports AG;Ausserfeldweg 1 / Gewerbezentrum N5;4528;Zuchwil;032 685 35 50;info@stoecklisport.ch;www.stoecklisport.ch
Schweiz;BE;Stöckli Swiss Sports AG;Stockhornstrasse;3627;Heimberg;033 437 02 12;info@stoecklisport.ch;www.stoecklisport.ch
Schweiz;VD;Stöckli Swiss Sports AG;Z.I. Rio Gredon 11;1806;St.-Légier;021 943 66 00;info@stoecklisport.ch;www.stoecklisport.ch
Schweiz;OW;Stöckli Swiss Sports AG;Stöckalp;6067;Melchtal;041 669 09 60;info@stoecklisport.ch;www.stoecklisport.ch
Schweiz;BE;Straub Sport AG;Marktgasse 35;4900;Langenthal;062 922 22 51;mail@straubsport.ch;www.straubsport.ch/
Schweiz;GR;Strimer Sport;Neudorfstrasse 73;7430;Thusis;081 651 55 44;info@strimer-sport.ch;www.strimer-sport.ch
Schweiz;BE;Strubel Sport GmbH;Rawylstrasse 34;3775;Lenk;079 449 31 36;info@strubelsport.ch;www.strubelsport.ch
Schweiz;SG;Sutter Sport GmbH;Niederwis;9656;Alt St. Johann;071 999 11 94;sutter-sport@bluewin.ch;www.suttersport.ch
Schweiz;VS;Theytaz Sports;imm. Belvédère;1988;Thyon-les-Collons;027 207 29 37;theytazf@bluewin.ch;www.theytazsports.ch
Schweiz;BE;Thömus Velo-Shop AG;Oberried;3145;Niederscherli;031 848 10 10;;www.thoemus.ch
Schweiz;SG;Tischhauser Sport;Hauptstrasse 3;9476;Weite;081 783 32 12;info@tischhauser-sport.ch;www.tischhauser-sport.ch
Schweiz;OW;Titlis-Sport AG;Klosterstrasse 9;6390;Engelberg;041639 60 70;info@titlis-sport.ch;www.titlis-sport.ch/
Schweiz;SZ;Tony-Sport;Altmattstrasse 35;6418;Rothenturm;041 838 14 75;tonysport@bluemail.ch;www.tonysport.ch
Schweiz;NE;Tosalli Sports SA;Avenue de la Gare 9a;2013;Colombier;032 841 23 12;tosallisports@bluewin.ch;www.tosallisports.ch
Schweiz;SG;Tower Sports AG;Neue Jonastrasse 37;8640;Rapperswil;055 222 70 80;;www.towersports.ch
Schweiz;SO;Tramp Store;Baslerstrasse 81;4632;Trimbach;062 293 23 33;shop@tramp-store.ch;www.tramp-store.ch
Schweiz;FR;Trango Sport Nature SA;Rue Albert-Rieter 10;1630;Bulle ;026 913 92 10;info@trangosport.ch;www.trangosport.ch
Schweiz;BE;Troxler Sport ;Oberriedstrasse;3775;Lenk;033 733 33 36;info@troxler-lenk.ch;www.troxler-lenk.ch
Schweiz;VS;Valaysport;Place Centrale 7;1870;Monthey;024 471 64 63;francis.p@bluewin.ch;www.valaysport.ch
Schweiz;GR;Vali AG;Bahnhofstrasse 2;7203;Trimmis;081 353 31 07;vali@swiss-window.ch;www.valisport.ch
Schweiz;VS;Valsport;résidence Tarcianne II;3961;Grimentz;027 475 27 76;valsport@bluewin.ch;www.valsport.ch
Schweiz;BE;Vaucher Sport Specialist AG;Hallmattstrasse 4;3172;Niederwangen BE;031 981 22 22;;www.vauchersport.ch
Schweiz;BE;Vaucher Sport Specialist AG;Marktgasse 27;3011;Bern ;031 311 22 34;;www.vauchersport.ch
Schweiz;BE;Vaucher Sport Specialist AG;Dufourstrasse 16;2500;Biel;032 322 16 19;;www.vauchersport.ch
Schweiz;VD;Vertical Sport AG;Jungfraustrasse 44;3800;Interlaken;033 823 53 83;info@verticalsport.ch;www.verticalsport.ch
Schweiz;VS;Virage Sports;Imm. Crêt du Midi;3967;Vercorin;079 220 71 45;bhitter@vtx.ch;www.virage.ch
Schweiz;ZH;Vivax-Sport Pasoldt & Co.;Turmhaldenstrasse 6;8400;Winterthur;052 213 04 06;mail@vivax.ch;www.cylex.ch
Schweiz;VS;Volken Sport GmbH;Haus Rondo;3984;Fiesch;027 971 11 16;sport@volken-sport.ch;www.volken-sport.ch
Schweiz;LU;von Moos Sport + Hobby AG;Kasernenplatz 3-4;6000;Luzern 7;041 240 13 16;info@vonmoos-luzern.ch;www.vonmoos-luzern.ch
Schweiz;GL;Vreni Schneider Sport;Dorf;8767;Elm;055 642 10 38;sport@vrenischneider.ch;www.vrenischneidersport.ch
Schweiz;FL;W + M Sport;Fürst-Franz-Josefstrasse 43;9490;Vaduz;00423 2301303;w-m-@w-msport.li;www.w-msport.li
Schweiz;AR;WAKO SPORT AG;Hechtstrasse 2;9053;Teufen;071 333 41 10;info@wakosport.ch;www.wakosport.ch/
Schweiz;GR;Wasescha Sport AG;Veia Principala 49;7460;Savognin;081 684 13 13;info@waseschasport.ch;www.waseschasport.ch
Schweiz;BE;Wenger Sport;Oberdorf;3753;Oey;033 681 13 80;wengerschuhe@zapp.ch;www.wenger-diemtigtal.ch
Schweiz;TG;Westpark Sport AG;Weststrasse 47;8570;Weinfelden;071 622 56 31;rokle@access.ch;www.westparksport.ch
Schweiz;ZH;Wiesmann Skiservice;Moosmattstrasse 34;8953;Dietikon;01 741 54 41;info@wiesmann-ski.ch;www.wiesmann-ski.ch
Schweiz;SG;Wildhaber Sport AG;Kirchstrasse 9;8890;Flums;081 733 23 24;wildhaber.sport@bluewin.ch;www.wildhaber-sport.ch
Schweiz;SG;Wildmanndli-Sport ;Toggenburgerstrasse 25;9652;Neu St. Johann;071 994 17 17;rustpeter@gmx.ch;www.wildmanndli-sport.ch
Schweiz;GR;Willy Sport & moda;San Bastiaun 18;7524;Zuoz;081 854 12 89;info@willy-sport.ch;www.willy-sport.ch
Schweiz;ZH;Wilma Ski Sport;Betpurstrasse 2;8910;Affoltern am Albis;044 761 56 37;info@wilmaskisport.ch;www.wilmaskisport.ch
Schweiz;SZ;Wisel-Kälin Sport AG ;Bahnhofplatz 18;8840;Einsiedeln;055 412 21 88;kaelin-sport@bluewin.ch;www.wisel-kaelin-sport.ch
Schweiz;VD;Yosemite Sàrl;Boulevard de Grancy 12;1006;Lausanne;021 617 31 00;yosemite@worldcom.ch;www.yosemite.ch
Schweiz;VS;Zanskar Sports;;1944;La Fouly;027 783 30 00;;www.zanskar.ch
Schweiz;GR;Zegg Sport & Mode;;7563;Samnaun Dorf;081 868 57 57;info@zegg.ch;www.zegg.ch
Schweiz;VS;Zinal Sport ;;3961;Zinal;027 475 13 74;info@zinal-sports.ch;www.zinal-sports.ch
